{
  "type": "FeatureCollection",
  "features": [
    {
      "type": "Feature",
      "properties": {
        "norad_id": 43057,
        "name": "GSAT0217 (GALILEO 21)",
        "group": "gnss",
        "lat": 5.931899369515804,
        "lon": 42.288836184306994,
        "alt_km": 23229.880676041386,
        "timestamp": "2025-12-20T07:33:51.056411+00:00",
        "meta_object_name": "GSAT0217 (GALILEO 21)",
        "meta_object_id": "2017-079C",
        "meta_epoch": "2025-12-17T16:29:50.691264",
        "meta_mean_motion": 1.70474088,
        "meta_eccentricity": 0.00027909,
        "meta_inclination": 55.1268,
        "meta_ra_of_asc_node": 226.4994,
        "meta_arg_of_pericenter": 347.0606,
        "meta_mean_anomaly": 13.035,
        "meta_ephemeris_type": 0,
        "meta_classification_type": "U",
        "meta_norad_cat_id": 43057,
        "meta_element_set_no": 999,
        "meta_rev_at_epoch": 4989,
        "meta_bstar": 0,
        "meta_mean_motion_dot": 5.8e-07,
        "meta_mean_motion_ddot": 0,
        "tle_line1": "1 43057U 17079C   25351.68739226  .00000058  00000+0  00000+0 0  9993",
        "tle_line2": "2 43057  55.1268 226.4994 0002790 347.0606  13.0350  1.70474088 49899"
      },
      "geometry": {
        "type": "Point",
        "coordinates": [
          42.288836184306994,
          5.931899369515804
        ]
      }
    },
    {
      "type": "Feature",
      "properties": {
        "norad_id": 43058,
        "name": "GSAT0218 (GALILEO 22)",
        "group": "gnss",
        "lat": 30.110938688357678,
        "lon": -109.71907586043883,
        "alt_km": 23218.875655066364,
        "timestamp": "2025-12-20T07:33:51.056422+00:00",
        "meta_object_name": "GSAT0218 (GALILEO 22)",
        "meta_object_id": "2017-079D",
        "meta_epoch": "2025-12-19T01:56:03.752736",
        "meta_mean_motion": 1.70474173,
        "meta_eccentricity": 0.0002958,
        "meta_inclination": 55.1266,
        "meta_ra_of_asc_node": 226.4587,
        "meta_arg_of_pericenter": 305.073,
        "meta_mean_anomaly": 55.0073,
        "meta_ephemeris_type": 0,
        "meta_classification_type": "U",
        "meta_norad_cat_id": 43058,
        "meta_element_set_no": 999,
        "meta_rev_at_epoch": 4994,
        "meta_bstar": 0,
        "meta_mean_motion_dot": 6.6e-07,
        "meta_mean_motion_ddot": 0,
        "tle_line1": "1 43058U 17079D   25353.08059899  .00000066  00000+0  00000+0 0  9990",
        "tle_line2": "2 43058  55.1266 226.4587 0002958 305.0730  55.0073  1.70474173 49943"
      },
      "geometry": {
        "type": "Point",
        "coordinates": [
          -109.71907586043883,
          30.110938688357678
        ]
      }
    },
    {
      "type": "Feature",
      "properties": {
        "norad_id": 43107,
        "name": "BEIDOU-3 M7 (C27)",
        "group": "gnss",
        "lat": -20.810020361063412,
        "lon": 144.25760018445723,
        "alt_km": 21536.554637938556,
        "timestamp": "2025-12-20T07:33:51.056433+00:00",
        "meta_object_name": "BEIDOU-3 M7 (C27)",
        "meta_object_id": "2018-003A",
        "meta_epoch": "2025-12-18T09:32:16.089216",
        "meta_mean_motion": 1.86232527,
        "meta_eccentricity": 0.00028894,
        "meta_inclination": 54.4914,
        "meta_ra_of_asc_node": 308.6174,
        "meta_arg_of_pericenter": 69.2572,
        "meta_mean_anomaly": 290.7611,
        "meta_ephemeris_type": 0,
        "meta_classification_type": "U",
        "meta_norad_cat_id": 43107,
        "meta_element_set_no": 999,
        "meta_rev_at_epoch": 5398,
        "meta_bstar": 0,
        "meta_mean_motion_dot": -8.5e-07,
        "meta_mean_motion_ddot": 0,
        "tle_line1": "1 43107U 18003A   25352.39740844 -.00000085  00000+0  00000+0 0  9995",
        "tle_line2": "2 43107  54.4914 308.6174 0002889  69.2572 290.7611  1.86232527 53988"
      },
      "geometry": {
        "type": "Point",
        "coordinates": [
          144.25760018445723,
          -20.810020361063412
        ]
      }
    },
    {
      "type": "Feature",
      "properties": {
        "norad_id": 43108,
        "name": "BEIDOU-3 M8 (C28)",
        "group": "gnss",
        "lat": -46.29361038071788,
        "lon": 176.7981245447943,
        "alt_km": 21522.811371172484,
        "timestamp": "2025-12-20T07:33:51.056444+00:00",
        "meta_object_name": "BEIDOU-3 M8 (C28)",
        "meta_object_id": "2018-003B",
        "meta_epoch": "2025-12-19T09:59:25.031616",
        "meta_mean_motion": 1.86231091,
        "meta_eccentricity": 0.0004569,
        "meta_inclination": 54.4835,
        "meta_ra_of_asc_node": 308.5648,
        "meta_arg_of_pericenter": 277.2174,
        "meta_mean_anomaly": 82.7201,
        "meta_ephemeris_type": 0,
        "meta_classification_type": "U",
        "meta_norad_cat_id": 43108,
        "meta_element_set_no": 999,
        "meta_rev_at_epoch": 5401,
        "meta_bstar": 0,
        "meta_mean_motion_dot": -7.7e-07,
        "meta_mean_motion_ddot": 0,
        "tle_line1": "1 43108U 18003B   25353.41626194 -.00000077  00000+0  00000+0 0  9992",
        "tle_line2": "2 43108  54.4835 308.5648 0004569 277.2174  82.7201  1.86231091 54016"
      },
      "geometry": {
        "type": "Point",
        "coordinates": [
          176.7981245447943,
          -46.29361038071788
        ]
      }
    },
    {
      "type": "Feature",
      "properties": {
        "norad_id": 43207,
        "name": "BEIDOU-3 M4 (C22)",
        "group": "gnss",
        "lat": -42.2301473536812,
        "lon": 32.169859963551374,
        "alt_km": 21527.168744829465,
        "timestamp": "2025-12-20T07:33:51.056455+00:00",
        "meta_object_name": "BEIDOU-3 M4 (C22)",
        "meta_object_id": "2018-018A",
        "meta_epoch": "2025-12-18T05:56:14.155584",
        "meta_mean_motion": 1.86231297,
        "meta_eccentricity": 0.0004163,
        "meta_inclination": 56.4903,
        "meta_ra_of_asc_node": 69.1221,
        "meta_arg_of_pericenter": 6.0826,
        "meta_mean_anomaly": 353.9513,
        "meta_ephemeris_type": 0,
        "meta_classification_type": "U",
        "meta_norad_cat_id": 43207,
        "meta_element_set_no": 999,
        "meta_rev_at_epoch": 5337,
        "meta_bstar": 0,
        "meta_mean_motion_dot": -6.5e-07,
        "meta_mean_motion_ddot": 0,
        "tle_line1": "1 43207U 18018A   25352.24738606 -.00000065  00000+0  00000+0 0  9997",
        "tle_line2": "2 43207  56.4903  69.1221 0004163   6.0826 353.9513  1.86231297 53378"
      },
      "geometry": {
        "type": "Point",
        "coordinates": [
          32.169859963551374,
          -42.2301473536812
        ]
      }
    },
    {
      "type": "Feature",
      "properties": {
        "norad_id": 43208,
        "name": "BEIDOU-3 M3 (C21)",
        "group": "gnss",
        "lat": -55.60797823943536,
        "lon": -35.819808814759845,
        "alt_km": 21521.959391489494,
        "timestamp": "2025-12-20T07:33:51.056469+00:00",
        "meta_object_name": "BEIDOU-3 M3 (C21)",
        "meta_object_id": "2018-018B",
        "meta_epoch": "2025-12-19T09:18:26.987040",
        "meta_mean_motion": 1.8623146,
        "meta_eccentricity": 0.0007021,
        "meta_inclination": 56.4904,
        "meta_ra_of_asc_node": 69.0885,
        "meta_arg_of_pericenter": 313.7803,
        "meta_mean_anomaly": 46.1968,
        "meta_ephemeris_type": 0,
        "meta_classification_type": "U",
        "meta_norad_cat_id": 43208,
        "meta_element_set_no": 999,
        "meta_rev_at_epoch": 5339,
        "meta_bstar": 0,
        "meta_mean_motion_dot": -5.3e-07,
        "meta_mean_motion_ddot": 0,
        "tle_line1": "1 43208U 18018B   25353.38781235 -.00000053  00000+0  00000+0 0  9997",
        "tle_line2": "2 43208  56.4904  69.0885 0007021 313.7803  46.1968  1.86231460 53393"
      },
      "geometry": {
        "type": "Point",
        "coordinates": [
          -35.819808814759845,
          -55.60797823943536
        ]
      }
    },
    {
      "type": "Feature",
      "properties": {
        "norad_id": 43245,
        "name": "BEIDOU-3 M9 (C29)",
        "group": "gnss",
        "lat": 46.51884118744183,
        "lon": 77.08519593288779,
        "alt_km": 21526.972979707658,
        "timestamp": "2025-12-20T07:33:51.056480+00:00",
        "meta_object_name": "BEIDOU-3 M9 (C29)",
        "meta_object_id": "2018-029A",
        "meta_epoch": "2025-12-19T14:29:50.131680",
        "meta_mean_motion": 1.86228397,
        "meta_eccentricity": 0.00015252,
        "meta_inclination": 54.3596,
        "meta_ra_of_asc_node": 306.2287,
        "meta_arg_of_pericenter": 290.8433,
        "meta_mean_anomaly": 69.1316,
        "meta_ephemeris_type": 0,
        "meta_classification_type": "U",
        "meta_norad_cat_id": 43245,
        "meta_element_set_no": 999,
        "meta_rev_at_epoch": 5255,
        "meta_bstar": 0,
        "meta_mean_motion_dot": -7.4e-07,
        "meta_mean_motion_ddot": 0,
        "tle_line1": "1 43245U 18029A   25353.60405245 -.00000074  00000+0  00000+0 0  9992",
        "tle_line2": "2 43245  54.3596 306.2287 0001525 290.8433  69.1316  1.86228397 52551"
      },
      "geometry": {
        "type": "Point",
        "coordinates": [
          77.08519593288779,
          46.51884118744183
        ]
      }
    }
  ]
}